<?xml version="1.0" encoding="UTF-8"?>
<kml xmlns="http://www.opengis.net/kml/2.2">
  <Document>
    <name>Bangkok Landuse Overlay</name>
    <GroundOverlay>
      <name>BKK Landuse</name>
      <Icon><href>../img/bangkok_56.web.jpg</href></Icon>
      <LatLonBox>
        <north>14.2000</north>
        <south>13.4500</south>
        <east>100.9500</east>
        <west>100.3200</west>
        <rotation>0</rotation>
      </LatLonBox>
      <color>7fffffff</color>
    </GroundOverlay>
  </Document>
</kml>
